[{"OBJECT_NAME":"UTMN 2 (RS27S)","OBJECT_ID":"2023-091AP","EPOCH":"2026-03-09T23:09:07.917408","MEAN_MOTION":15.29495965,"ECCENTRICITY":0.00097379,"INCLINATION":97.5194,"RA_OF_ASC_NODE":134.949,"ARG_OF_PERICENTER":76.0788,"MEAN_ANOMALY":284.1534,"EPHEMERIS_TYPE":0,"CLASSIFICATION_TYPE":"U","NORAD_CAT_ID":57203,"ELEMENT_SET_NO":999,"REV_AT_EPOCH":14936,"BSTAR":0.00056135701,"MEAN_MOTION_DOT":0.00016013,"MEAN_MOTION_DDOT":0},{"OBJECT_NAME":"STARLINK-33566","OBJECT_ID":"2024-220N","EPOCH":"2026-03-09T09:08:12.788448","MEAN_MOTION":15.27597971,"ECCENTRICITY":0.00029148,"INCLINATION":43.0033,"RA_OF_ASC_NODE":192.5791,"ARG_OF_PERICENTER":270.6641,"MEAN_ANOMALY":89.3877,"EPHEMERIS_TYPE":0,"CLASSIFICATION_TYPE":"U","NORAD_CAT_ID":62100,"ELEMENT_SET_NO":999,"REV_AT_EPOCH":7331,"BSTAR":0.0011706951,"MEAN_MOTION_DOT":0.00032113,"MEAN_MOTION_DDOT":0}]
